NORAD_CAT_ID,OBJECT_NAME,OBJECT_TYPE,EPOCH,MEAN_MOTION,ECCENTRICITY,INCLINATION,RA_OF_ASC_NODE,ARG_OF_PERICENTER,MEAN_ANOMALY,BSTAR,MEAN_MOTION_DOT,MEAN_MOTION_DDOT,TLE_LINE0,TLE_LINE1,TLE_LINE2,SEMIMAJOR_AXIS,PERIOD,APOGEE,PERIGEE,DECAYED
51465.0,STARLINK-3401,PAYLOAD,2022-02-18 18:00:02,15.77736966,0.0001291999999999,53.2171,98.1597,40.7858,336.4248,-0.0056891999999999,-0.00879691,0.0,0 STARLINK-3401,1 51465U 22010K   22049.75002315 -.00879691  00000-0 -56892-2 0  9990,2 51465  53.2171  98.1597 0001292  40.7858 336.4248 15.77736966  2905,6714.991,91.27,337.724,335.9890000000001,0.0
51465.0,STARLINK-3401,PAYLOAD,2022-02-19 20:00:01,15.75687969,0.0001439,53.2174,92.7701,34.9057,14.9445,-0.0061927,-0.00874399,0.0,0 STARLINK-3401,1 51465U 22010K   22050.83334491 -.00874399  00000-0 -61927-2 0  9999,2 51465  53.2174  92.7701 0001439  34.9057  14.9445 15.75687969  3852,6720.811,91.389,343.64300000000014,341.709,0.0
51465.0,STARLINK-3401,PAYLOAD,2022-02-20 14:00:01,15.74180089,0.0001371,53.2167,89.0499,43.6031,301.1784,-0.0056207,-0.00753687,0.0,0 STARLINK-3401,1 51465U 22010K   22051.58334491 -.00753687  00000-0 -56207-2 0  9993,2 51465  53.2167  89.0499 0001371  43.6031 301.1784 15.74180089  3971,6725.102,91.476,347.889,346.045,0.0
51465.0,STARLINK-3401,PAYLOAD,2022-02-20 22:00:00,15.73476119,0.0001249,53.2174,87.397,41.0238,33.5713,-0.0028455,-0.00386712,0.0,0 STARLINK-3401,1 51465U 22010K   22051.91667824 -.00386712  00000-0 -28455-2 0  9994,2 51465  53.2174  87.3970 0001249  41.0238  33.5713 15.73476119  2089,6727.108,91.517,349.81300000000016,348.1330000000001,0.0
51465.0,STARLINK-3401,PAYLOAD,2022-02-21 06:00:00,15.73151457,0.0001383,53.2151,85.7439,34.9187,128.7847,4.8443e-05,6.17e-05,0.0,0 STARLINK-3401,1 51465U 22010K   22052.25001157  .00006170  00000-0  48443-4 0  9999,2 51465  53.2151  85.7439 0001383  34.9187 128.7847 15.73151457  4070,6728.034000000002,91.536,350.829,348.968,0.0
51465.0,STARLINK-3401,PAYLOAD,2022-02-21 20:00:01,15.73180006,0.0001389,53.2148,82.8567,34.939,194.3715,0.00021601,0.00029777,0.0,0 STARLINK-3401,1 51465U 22010K   22052.83335648  .00029777  00000-0  21601-3 0  9992,2 51465  53.2148  82.8567 0001389  34.9390 194.3715 15.73180006  4163,6727.9519999999975,91.534,350.75199999999984,348.8830000000001,0.0
51465.0,STARLINK-3401,PAYLOAD,2022-02-21 22:00:00,15.73162691,0.0001330999999999,53.2146,82.444,36.9822,304.4973,0.00056532,0.00079344,0.0,0 STARLINK-3401,1 51465U 22010K   22052.91667824  .00079344  00000-0  56532-3 0  9991,2 51465  53.2146  82.4440 0001331  36.9822 304.4973 15.73162691  2243,6728.002,91.535,350.76199999999994,348.971,0.0
51465.0,STARLINK-3401,PAYLOAD,2022-02-22 04:00:00,15.73232638,0.000137,53.2151,81.2074,39.0581,279.1056,0.00014831,0.00020273,0.0,0 STARLINK-3401,1 51465U 22010K   22053.16667824  .00020273  00000-0  14831-3 0  9992,2 51465  53.2151  81.2074 0001370  39.0581 279.1056 15.73232638  4216,6727.802,91.531,350.589,348.745,0.0
51465.0,STARLINK-3401,PAYLOAD,2022-02-22 14:00:01,15.73244053,0.00016,53.215,79.1469,33.4237,125.9552,0.0004554,0.00063902,0.0,0 STARLINK-3401,1 51465U 22010K   22053.58334491  .00063902  00000-0  45540-3 0  9996,2 51465  53.2150  79.1469 0001600  33.4237 125.9552 15.73244053  2346,6727.77,91.531,350.711,348.55800000000005,0.0
51465.0,STARLINK-3401,PAYLOAD,2022-02-22 22:00:00,15.73296883,0.0001469,53.2154,77.495,40.9762,207.423,-0.00012697,-0.00018475,0.0,0 STARLINK-3401,1 51465U 22010K   22053.91667824 -.00018475  00000-0 -12697-3 0  9996,2 51465  53.2154  77.4950 0001469  40.9762 207.4230 15.73296883  2409,6727.619000000002,91.528,350.472,348.496,0.0
51465.0,STARLINK-3401,PAYLOAD,2022-02-23 06:00:00,15.73279774,0.000164,53.2157,75.8464,41.1672,296.2703,-0.00060948,-0.00085586,0.0,0 STARLINK-3401,1 51465U 22010K   22054.25001157 -.00085586  00000-0 -60948-3 0  9994,2 51465  53.2157  75.8464 0001640  41.1672 296.2703 15.73279774  4399,6727.668000000002,91.529,350.636,348.42900000000014,0.0
51465.0,STARLINK-3401,PAYLOAD,2022-02-23 14:00:01,15.73237977,0.00017,53.2154,74.1975,32.5561,33.8504,-0.00042879,-0.00060468,0.0,0 STARLINK-3401,1 51465U 22010K   22054.58334491 -.00060468  00000-0 -42879-3 0  9995,2 51465  53.2154  74.1975 0001700  32.5561  33.8504 15.73237977  2507,6727.7869999999975,91.531,350.796,348.5080000000001,0.0
51465.0,STARLINK-3401,PAYLOAD,2022-02-23 22:00:00,15.73156626,0.0001472,53.2153,72.5462,39.2891,116.0581,-8.6766e-05,-0.00012756,0.0,0 STARLINK-3401,1 51465U 22010K   22054.91667824 -.00012756  00000-0 -86766-4 0  9992,2 51465  53.2153  72.5462 0001472  39.2891 116.0581 15.73156626  2561,6728.019,91.536,350.874,348.89300000000014,0.0
51465.0,STARLINK-3401,PAYLOAD,2022-02-24 06:00:00,15.73158144,0.0001693,53.2156,70.8984,41.7412,202.4845,0.00010442,0.00014033,0.0,0 STARLINK-3401,1 51465U 22010K   22055.25001157  .00014033  00000-0  10442-3 0  9996,2 51465  53.2156  70.8984 0001693  41.7412 202.4845 15.73158144  4546,6728.015,91.536,351.019,348.74,0.0
51465.0,STARLINK-3401,PAYLOAD,2022-02-24 14:00:01,15.73185753,0.0001774,53.2155,69.2494,37.8433,295.2701,0.00034321,0.00047793,0.0,0 STARLINK-3401,1 51465U 22010K   22055.58334491  .00047793  00000-0  34321-3 0  9993,2 51465  53.2155  69.2494 0001774  37.8433 295.2701 15.73185753  2660,6727.936,91.534,350.994,348.607,0.0
51465.0,STARLINK-3401,PAYLOAD,2022-02-24 22:00:00,15.73183191,0.0001597,53.2159,67.5978,44.7528,17.285999999999998,0.00059977,0.00084343,0.0,0 STARLINK-3401,1 51465U 22010K   22055.91667824  .00084343  00000-0  59977-3 0  9995,2 51465  53.2159  67.5978 0001597  44.7528  17.2860 15.73183191  2715,6727.943,91.534,350.8830000000001,348.7340000000001,0.0
51465.0,STARLINK-3401,PAYLOAD,2022-02-25 06:00:00,15.73259803,0.0001737,53.216,65.9498,39.6353,111.3484,-0.00064721,-0.00090715,0.0,0 STARLINK-3401,1 51465U 22010K   22056.25001157 -.00090715  00000-0 -64721-3 0  9999,2 51465  53.2160  65.9498 0001737  39.6353 111.3484 15.73259803  4704,6727.725,91.53,350.7580000000001,348.421,0.0
51465.0,STARLINK-3401,PAYLOAD,2022-02-25 14:00:01,15.7320323,0.0001723,53.2156,64.3005,34.9752,204.959,0.00015536,0.00021242,0.0,0 STARLINK-3401,1 51465U 22010K   22056.58334491  .00021242  00000-0  15536-3 0  9992,2 51465  53.2156  64.3005 0001723  34.9752 204.9590 15.73203230  2823,6727.886,91.533,350.91,348.592,0.0
51465.0,STARLINK-3401,PAYLOAD,2022-02-25 22:00:00,15.73229543,0.0001591,53.2157,62.6492,43.7434,285.1467,7.876899999999999e-05,0.00010462,0.0,0 STARLINK-3401,1 51465U 22010K   22056.91667824  .00010462  00000-0  78769-4 0  9998,2 51465  53.2157  62.6492 0001591  43.7434 285.1467 15.73229543  4802,6727.811,91.531,350.746,348.606,0.0
51465.0,STARLINK-3401,PAYLOAD,2022-02-26 14:00:01,15.73251187,0.0001795,53.2156,59.3519,40.202,106.5946,-0.00065586,-0.00091874,0.0,0 STARLINK-3401,1 51465U 22010K   22057.58334491 -.00091874  00000-0 -65586-3 0  9993,2 51465  53.2156  59.3519 0001795  40.2020 106.5946 15.73251187  4912,6727.749,91.53,350.82199999999995,348.407,0.0
51465.0,STARLINK-3401,PAYLOAD,2022-02-26 22:00:00,15.731825199999998,0.0001511,53.2158,57.7003,43.0123,192.7292,0.00016882,0.0002312,0.0,0 STARLINK-3401,1 51465U 22010K   22057.91667824  .00023120  00000-0  16882-3 0  9991,2 51465  53.2158  57.7003 0001511  43.0123 192.7292 15.73182520  3032,6727.945,91.534,350.827,348.793,0.0
51465.0,STARLINK-3401,PAYLOAD,2022-02-27 06:00:00,15.73172277,0.0001694,53.216,56.0525,37.5859,287.0793,-0.00012328,-0.00017865,0.0,0 STARLINK-3401,1 51465U 22010K   22058.25001157 -.00017865  00000-0 -12328-3 0  9992,2 51465  53.2160  56.0525 0001694  37.5859 287.0793 15.73172277  5014,6727.974,91.535,350.97900000000016,348.699,0.0
51465.0,STARLINK-3401,PAYLOAD,2022-02-27 14:00:01,15.73190941,0.0001686,53.2156,54.4029,34.1534,19.4014,9.4885e-05,0.00012711,0.0,0 STARLINK-3401,1 51465U 22010K   22058.58334491  .00012711  00000-0  94885-4 0  9990,2 51465  53.2156  54.4029 0001686  34.1534  19.4014 15.73190941  5071,6727.920999999999,91.534,350.92,348.652,0.0
51465.0,STARLINK-3401,PAYLOAD,2022-02-27 22:00:00,15.73198346,0.0001483,53.2157,52.7517,42.7096,99.7772,0.00058657,0.00082508,0.0,0 STARLINK-3401,1 51465U 22010K   22058.91667824  .00082508  00000-0  58657-3 0  9993,2 51465  53.2157  52.7517 0001483  42.7096  99.7772 15.73198346  3198,6727.9,91.533,350.76300000000015,348.767,0.0
51465.0,STARLINK-3401,PAYLOAD,2022-02-28 06:00:00,15.73264505,0.0001641,53.2156,51.1041,37.2531,194.1832,-0.00021188,-0.00030333,0.0,0 STARLINK-3401,1 51465U 22010K   22059.25001157 -.00030333  00000-0 -21188-3 0  9992,2 51465  53.2156  51.1041 0001641  37.2531 194.1832 15.73264505  5179,6727.7109999999975,91.529,350.68,348.472,0.0
51465.0,STARLINK-3401,PAYLOAD,2022-02-28 14:00:01,15.73260634,0.0001585,53.2155,49.4539,33.3573,287.08,-0.00035799,-0.00050692,0.0,0 STARLINK-3401,1 51465U 22010K   22059.58334491 -.00050692  00000-0 -35799-3 0  9991,2 51465  53.2155  49.4539 0001585  33.3573 287.0800 15.73260634  3309,6727.722,91.53,350.654,348.521,0.0
51465.0,STARLINK-3401,PAYLOAD,2022-02-28 22:00:00,15.73189193,0.0001486,53.2159,47.8024,42.9625,6.4583,0.00031473,0.0004376,0.0,0 STARLINK-3401,1 51465U 22010K   22059.91667824  .00043760  00000-0  31473-3 0  9998,2 51465  53.2159  47.8024 0001486  42.9625   6.4583 15.73189193  3354,6727.926,91.534,350.791,348.791,0.0
51465.0,STARLINK-3401,PAYLOAD,2022-03-01 14:00:01,15.73198428,0.0001578,53.2158,44.5047,33.6484,193.6155,4.086e-05,5.117e-05,0.0,0 STARLINK-3401,1 51465U 22010K   22060.58334491  .00005117  00000-0  40860-4 0  9999,2 51465  53.2158  44.5047 0001578  33.6484 193.6155 15.73198428  5384,6727.9,91.533,350.826,348.70300000000015,0.0
51465.0,STARLINK-3401,PAYLOAD,2022-03-01 22:00:01,15.73211584,0.0001385,53.216,42.8537,38.7374,277.514,0.00032108,0.00044704,0.0,0 STARLINK-3401,1 51465U 22010K   22060.91668981  .00044704  00000-0  32108-3 0  9990,2 51465  53.2160  42.8537 0001385  38.7374 277.5140 15.73211584  3510,6727.861999999999,91.533,350.659,348.795,0.0
